start=new Date('2023-05-16T00:00:00.000Z').valueOf();
sats=[{"MEAN_MOTION_DDOT":"0.0000000000000","TLE_LINE1":"1 55632U 23021E   23135.68933911  .00000139  00000-0  19430-4 0  9997","REF_FRAME":"TEME","DECAY_DATE":null,"LAUNCH_DATE":"2023-02-17","APOAPSIS":"574.189","MEAN_ELEMENT_THEORY":"SGP4","ELEMENT_SET_NO":"999","OBJECT_TYPE":"PAYLOAD","INCLINATION":"69.9999","RA_OF_ASC_NODE":"278.9382","ECCENTRICITY":"0.00030780","ARG_OF_PERICENTER":"268.9339","CLASSIFICATION_TYPE":"U","PERIOD":"96.107","MEAN_MOTION":"14.98332581","PERIAPSIS":"569.911","COUNTRY_CODE":"US","BSTAR":"0.00001943000000","FILE":"3908892","NORAD_CAT_ID":"55632","CENTER_NAME":"EARTH","EPOCH":"2023-05-15T16:32:38.899104","OBJECT_NAME":"STARLINK-5546","MEAN_ANOMALY":"91.1467","SEMIMAJOR_AXIS":"6950.185","MEAN_MOTION_DOT":"0.00000139","RCS_SIZE":"LARGE","OBJECT_ID":"2023-021E","REV_AT_EPOCH":"1416","EPHEMERIS_TYPE":"0","GP_ID":"231928811","SITE":"AFWTR","TIME_SYSTEM":"UTC","TLE_LINE2":"2 55632  69.9999 278.9382 0003078 268.9339  91.1467 14.98332581 14165"},{"NORAD_CAT_ID":"55633","CENTER_NAME":"EARTH","COUNTRY_CODE":"US","BSTAR":"0.00003474600000","FILE":"3908892","CLASSIFICATION_TYPE":"U","PERIOD":"96.107","MEAN_MOTION":"14.98330505","PERIAPSIS":"569.851","OBJECT_TYPE":"PAYLOAD","RA_OF_ASC_NODE":"278.9242","INCLINATION":"69.9996","ECCENTRICITY":"0.00031730","ARG_OF_PERICENTER":"267.2467","APOAPSIS":"574.262","MEAN_ELEMENT_THEORY":"SGP4","ELEMENT_SET_NO":"999","DECAY_DATE":null,"LAUNCH_DATE":"2023-02-17","REF_FRAME":"TEME","TLE_LINE1":"1 55633U 23021F   23135.68516662  .00000322  00000-0  34746-4 0  9999","MEAN_MOTION_DDOT":"0.0000000000000","GP_ID":"231929562","SITE":"AFWTR","TIME_SYSTEM":"UTC","TLE_LINE2":"2 55633  69.9996 278.9242 0003173 267.2467  92.8329 14.98330505 14167","EPHEMERIS_TYPE":"0","REV_AT_EPOCH":"1416","SEMIMAJOR_AXIS":"6950.191","RCS_SIZE":"LARGE","MEAN_MOTION_DOT":"0.00000322","OBJECT_ID":"2023-021F","OBJECT_NAME":"STARLINK-5498","MEAN_ANOMALY":"92.8329","EPOCH":"2023-05-15T16:26:38.395968"},{"ARG_OF_PERICENTER":"268.7792","RA_OF_ASC_NODE":"278.9536","ECCENTRICITY":"0.00030080","INCLINATION":"69.9997","OBJECT_TYPE":"PAYLOAD","PERIAPSIS":"569.966","MEAN_MOTION":"14.98330432","PERIOD":"96.107","CLASSIFICATION_TYPE":"U","FILE":"3908892","BSTAR":"0.00004669500000","COUNTRY_CODE":"US","CENTER_NAME":"EARTH","NORAD_CAT_ID":"55634","TLE_LINE1":"1 55634U 23021G   23135.69351479  .00000464  00000-0  46695-4 0  9997","MEAN_MOTION_DDOT":"0.0000000000000","REF_FRAME":"TEME","DECAY_DATE":null,"LAUNCH_DATE":"2023-02-17","ELEMENT_SET_NO":"999","MEAN_ELEMENT_THEORY":"SGP4","APOAPSIS":"574.147","EPHEMERIS_TYPE":"0","TLE_LINE2":"2 55634  69.9997 278.9536 0003008 268.7792  91.3022 14.98330432 14162","TIME_SYSTEM":"UTC","GP_ID":"231929306","SITE":"AFWTR","EPOCH":"2023-05-15T16:38:39.677856","MEAN_ANOMALY":"91.3022","OBJECT_NAME":"STARLINK-5500","OBJECT_ID":"2023-021G","MEAN_MOTION_DOT":"0.00000464","RCS_SIZE":"LARGE","SEMIMAJOR_AXIS":"6950.192","REV_AT_EPOCH":"1416"},{"MEAN_MOTION_DDOT":"0.0000000000000","TLE_LINE1":"1 55635U 23021H   23135.69958424  .00002480  00000-0  22392-4 0  9999","REF_FRAME":"TEME","DECAY_DATE":null,"LAUNCH_DATE":"2023-02-17","ELEMENT_SET_NO":"999","MEAN_ELEMENT_THEORY":"SGP4","APOAPSIS":"361.446","ARG_OF_PERICENTER":"259.2578","ECCENTRICITY":"0.00034580","RA_OF_ASC_NODE":"265.5363","INCLINATION":"69.9985","OBJECT_TYPE":"PAYLOAD","PERIAPSIS":"356.787","MEAN_MOTION":"15.69924002","PERIOD":"91.724","CLASSIFICATION_TYPE":"U","FILE":"3908892","BSTAR":"0.00002239200000","COUNTRY_CODE":"US","CENTER_NAME":"EARTH","NORAD_CAT_ID":"55635","EPOCH":"2023-05-15T16:47:24.078336","MEAN_ANOMALY":"100.8229","OBJECT_NAME":"STARLINK-5495","OBJECT_ID":"2023-021H","MEAN_MOTION_DOT":"0.00002480","RCS_SIZE":"LARGE","SEMIMAJOR_AXIS":"6737.251","REV_AT_EPOCH":"1449","EPHEMERIS_TYPE":"0","TLE_LINE2":"2 55635  69.9985 265.5363 0003458 259.2578 100.8229 15.69924002 14498","TIME_SYSTEM":"UTC","GP_ID":"231928061","SITE":"AFWTR"},{"EPHEMERIS_TYPE":"0","GP_ID":"231928311","SITE":"AFWTR","TIME_SYSTEM":"UTC","TLE_LINE2":"2 55636  69.9996 278.8954 0004698 269.2511  90.8110 14.98332262 14162","OBJECT_NAME":"STARLINK-5218","MEAN_ANOMALY":"90.8110","EPOCH":"2023-05-15T16:14:36.683808","REV_AT_EPOCH":"1416","SEMIMAJOR_AXIS":"6950.186","MEAN_MOTION_DOT":"0.00000245","RCS_SIZE":"LARGE","OBJECT_ID":"2023-021J","CLASSIFICATION_TYPE":"U","PERIOD":"96.107","MEAN_MOTION":"14.98332262","PERIAPSIS":"568.786","OBJECT_TYPE":"PAYLOAD","RA_OF_ASC_NODE":"278.8954","ECCENTRICITY":"0.00046980","INCLINATION":"69.9996","ARG_OF_PERICENTER":"269.2511","NORAD_CAT_ID":"55636","CENTER_NAME":"EARTH","COUNTRY_CODE":"US","BSTAR":"0.00002834000000","FILE":"3908892","REF_FRAME":"TEME","MEAN_MOTION_DDOT":"0.0000000000000","TLE_LINE1":"1 55636U 23021J   23135.67681347  .00000245  00000-0  28340-4 0  9991","APOAPSIS":"575.316","MEAN_ELEMENT_THEORY":"SGP4","ELEMENT_SET_NO":"999","DECAY_DATE":null,"LAUNCH_DATE":"2023-02-17"},{"LAUNCH_DATE":"2023-02-17","DECAY_DATE":null,"ELEMENT_SET_NO":"999","MEAN_ELEMENT_THEORY":"SGP4","APOAPSIS":"361.269","MEAN_MOTION_DDOT":"0.0000000000000","TLE_LINE1":"1 55637U 23021K   23135.69948342  .00003325  00000-0  29419-4 0  9995","REF_FRAME":"TEME","FILE":"3908892","BSTAR":"0.00002941900000","COUNTRY_CODE":"US","CENTER_NAME":"EARTH","NORAD_CAT_ID":"55637","ARG_OF_PERICENTER":"262.1611","INCLINATION":"69.9998","RA_OF_ASC_NODE":"265.5366","ECCENTRICITY":"0.00031620","OBJECT_TYPE":"PAYLOAD","PERIAPSIS":"357.008","MEAN_MOTION":"15.69916393","PERIOD":"91.725","CLASSIFICATION_TYPE":"U","OBJECT_ID":"2023-021K","RCS_SIZE":"LARGE","MEAN_MOTION_DOT":"0.00003325","SEMIMAJOR_AXIS":"6737.273","REV_AT_EPOCH":"1449","EPOCH":"2023-05-15T16:47:15.367488","MEAN_ANOMALY":"97.9226","OBJECT_NAME":"STARLINK-5062","TLE_LINE2":"2 55637  69.9998 265.5366 0003162 262.1611  97.9226 15.69916393 14497","TIME_SYSTEM":"UTC","GP_ID":"231929062","SITE":"AFWTR","EPHEMERIS_TYPE":"0"},{"REV_AT_EPOCH":"1416","SEMIMAJOR_AXIS":"6950.183","RCS_SIZE":"LARGE","MEAN_MOTION_DOT":"0.00000237","OBJECT_ID":"2023-021L","OBJECT_NAME":"STARLINK-5507","MEAN_ANOMALY":"88.5587","EPOCH":"2023-05-15T16:20:37.570560","SITE":"AFWTR","GP_ID":"231929807","TIME_SYSTEM":"UTC","TLE_LINE2":"2 55638  69.9994 278.9085 0003152 271.5211  88.5587 14.98333327 14160","EPHEMERIS_TYPE":"0","APOAPSIS":"574.238","MEAN_ELEMENT_THEORY":"SGP4","ELEMENT_SET_NO":"999","DECAY_DATE":null,"LAUNCH_DATE":"2023-02-17","REF_FRAME":"TEME","MEAN_MOTION_DDOT":"0.0000000000000","TLE_LINE1":"1 55638U 23021L   23135.68099040  .00000237  00000-0  27688-4 0  9992","NORAD_CAT_ID":"55638","CENTER_NAME":"EARTH","COUNTRY_CODE":"US","BSTAR":"0.00002768800000","FILE":"3908892","CLASSIFICATION_TYPE":"U","PERIOD":"96.107","MEAN_MOTION":"14.98333327","PERIAPSIS":"569.857","OBJECT_TYPE":"PAYLOAD","RA_OF_ASC_NODE":"278.9085","ECCENTRICITY":"0.00031520","INCLINATION":"69.9994","ARG_OF_PERICENTER":"271.5211"},{"MEAN_ANOMALY":"98.8167","OBJECT_NAME":"STARLINK-5508","EPOCH":"2023-05-15T16:46:29.572896","REV_AT_EPOCH":"1449","OBJECT_ID":"2023-021M","MEAN_MOTION_DOT":"0.00002608","RCS_SIZE":"LARGE","SEMIMAJOR_AXIS":"6737.258","EPHEMERIS_TYPE":"0","TLE_LINE2":"2 55639  69.9983 265.5323 0003234 261.2662  98.8167 15.69921740 14498","TIME_SYSTEM":"UTC","SITE":"AFWTR","GP_ID":"231928562","REF_FRAME":"TEME","TLE_LINE1":"1 55639U 23021M   23135.69895339  .00002608  00000-0  23455-4 0  9991","MEAN_MOTION_DDOT":"0.0000000000000","ELEMENT_SET_NO":"999","MEAN_ELEMENT_THEORY":"SGP4","APOAPSIS":"361.302","DECAY_DATE":null,"LAUNCH_DATE":"2023-02-17","PERIAPSIS":"356.944","MEAN_MOTION":"15.69921740","PERIOD":"91.724","CLASSIFICATION_TYPE":"U","ARG_OF_PERICENTER":"261.2662","ECCENTRICITY":"0.00032340","RA_OF_ASC_NODE":"265.5323","INCLINATION":"69.9983","OBJECT_TYPE":"PAYLOAD","CENTER_NAME":"EARTH","NORAD_CAT_ID":"55639","FILE":"3908892","BSTAR":"0.00002345500000","COUNTRY_CODE":"US"},{"OBJECT_ID":"2023-021N","SEMIMAJOR_AXIS":"6737.253","MEAN_MOTION_DOT":"0.00002610","RCS_SIZE":"LARGE","REV_AT_EPOCH":"1449","EPOCH":"2023-05-15T16:45:53.225280","MEAN_ANOMALY":"96.9180","OBJECT_NAME":"STARLINK-5069","TIME_SYSTEM":"UTC","TLE_LINE2":"2 55640  70.0001 265.5322 0003410 263.1627  96.9180 15.69923517 14499","GP_ID":"231928812","SITE":"AFWTR","EPHEMERIS_TYPE":"0","DECAY_DATE":null,"LAUNCH_DATE":"2023-02-17","ELEMENT_SET_NO":"999","APOAPSIS":"361.415","MEAN_ELEMENT_THEORY":"SGP4","MEAN_MOTION_DDOT":"0.0000000000000","TLE_LINE1":"1 55640U 23021N   23135.69853270  .00002610  00000-0  23469-4 0  9999","REF_FRAME":"TEME","FILE":"3908892","COUNTRY_CODE":"US","BSTAR":"0.00002346900000","NORAD_CAT_ID":"55640","CENTER_NAME":"EARTH","ECCENTRICITY":"0.00034100","RA_OF_ASC_NODE":"265.5322","INCLINATION":"70.0001","ARG_OF_PERICENTER":"263.1627","OBJECT_TYPE":"PAYLOAD","MEAN_MOTION":"15.69923517","PERIAPSIS":"356.820","CLASSIFICATION_TYPE":"U","PERIOD":"91.724"},{"TLE_LINE1":"1 55641U 23021P   23135.69906066  .00003921  00000-0  34361-4 0  9991","MEAN_MOTION_DDOT":"0.0000000000000","REF_FRAME":"TEME","DECAY_DATE":null,"LAUNCH_DATE":"2023-02-17","MEAN_ELEMENT_THEORY":"SGP4","APOAPSIS":"361.362","ELEMENT_SET_NO":"999","OBJECT_TYPE":"PAYLOAD","ARG_OF_PERICENTER":"281.8431","RA_OF_ASC_NODE":"265.5332","INCLINATION":"70.0006","ECCENTRICITY":"0.00033290","PERIOD":"91.724","CLASSIFICATION_TYPE":"U","PERIAPSIS":"356.877","MEAN_MOTION":"15.69922890","BSTAR":"0.00003436100000","COUNTRY_CODE":"US","FILE":"3908892","CENTER_NAME":"EARTH","NORAD_CAT_ID":"55641","EPOCH":"2023-05-15T16:46:38.841024","OBJECT_NAME":"STARLINK-5065","MEAN_ANOMALY":"78.2392","MEAN_MOTION_DOT":"0.00003921","RCS_SIZE":"LARGE","SEMIMAJOR_AXIS":"6737.255","OBJECT_ID":"2023-021P","REV_AT_EPOCH":"1449","EPHEMERIS_TYPE":"0","SITE":"AFWTR","GP_ID":"231929563","TLE_LINE2":"2 55641  70.0006 265.5332 0003329 281.8431  78.2392 15.69922890 14496","TIME_SYSTEM":"UTC"}];
